#dP2018  7 16  0  0  0.00000000      96 __u+U ITR00 FIT  IAC
## 2010  86400.00000000   900.00000000 58315 0.0000000000000
+   86   C01C02C03C04C05C06C07C08C09C10C11C12C13C14E01E02E03
+        E04E05E07E08E09E11E12E14E18E19E24E26E30G01G02G03G04
+        G05G06G07G08G09G10G11G12G13G14G15G16G17G18G19G20G21
+        G22G23G24G25G26G27G28G29G30G31G32J01R01R02R03R04R05
+        R07R08R09R10R11R13R14R15R16R17R18R19R20R21R22R23R24
+        R26  0  0  0  0  0  0  0  0  0  0  0  0  0  0  0  0
++         0  0  0  0  0  0  0  0  0  0  0  0  0  0  0  0  0
++         0  0  0  0  0  0  0  0  0  0  0  0  0  0  0  0  0
++         0  0  0  0  0  0  0  0  0  0  0  0  0  0  0  0  0
++         0  0  0  0  0  0  0  0  0  0  0  0  0  0  0  0  0
++         0  0  0  0  0  0  0  0  0  0  0  0  0  0  0  0  0
++         0  0  0  0  0  0  0  0  0  0  0  0  0  0  0  0  0
%c M  cc GPS ccc cccc cccc cccc cccc ccccc ccccc ccccc ccccc
%c cc cc ccc ccc cccc cccc cccc cccc ccccc ccccc ccccc ccccc
%f  0.0000000  0.000000000  0.00000000000  0.000000000000000
%f  0.0000000  0.000000000  0.00000000000  0.000000000000000
%i    0    0    0    0      0      0      0      0         0
%i    0    0    0    0      0      0      0      0         0
/*                                                          
/*   RSA / INFORMATION & ANALYSIS CENTER (IAC) OF MCC       
/*   ULTRA-RAPID DETERMINATION                              
/* PCV:IGS14_2000 OL/AL:FES2004  NONE     YN ORB:CoN CLK:CoN
*  2018 07 16  9 30  0.00000000
PC01 -32342.249868  27034.830123   -574.674118    346.134567
PC02   4377.499124  41908.258249   1403.646991    -34.434822
PC03 -14846.231141  39491.253859    237.112223   -241.633263
PC04 -39607.930706  14440.181803    -17.056501   -265.542429
PC05  21869.099614  36041.060128   1049.458929    298.266138
PC06 -18407.643242  38046.657980   2829.955226    102.994547
PC07  -9422.329039  26165.085388 -31457.855455     65.302785
PC08 -21547.650729  21202.200015  29356.603363    440.447623
PC09 -10038.950574  39546.697080 -11077.137677     54.555925
PC10   5472.845213  34192.440484 -23659.312372   -390.205465
PC11 -22972.935586   4060.808168 -15207.482208   -593.578712
PC12  -9735.717417 -11977.131656 -23196.804971    517.852182
PC13  -8071.257880  24069.622686  33626.248100   -180.448999
PC14 -16251.937950  -5560.629214  22046.664347    244.016994
PE01  13015.126930  23744.873364 -11940.649792   -391.789726
PE02 -13053.405384 -23750.724093  11907.460222     19.716834
PE03  -2295.694843 -26667.914073  12662.587606    -54.987748
PE04  14369.258859  10939.184781 -23440.718510    -76.300794
PE05  11184.540530 -26827.199900  -5596.826077    227.937416
PE07 -18091.480859  11276.727910  20547.293392     -2.955565
PE08 -14345.612455 -10778.464227  23555.096040   6543.121856
PE09  17856.558901 -11477.027239 -20621.801808   6733.582136
PE11  28259.715672  -8718.421752   -975.170740   2491.527261
PE12  23639.180629   5165.096863  17034.323361   4612.879197
PE14  19309.806113  -5640.932292  12897.517574   6550.559552
PE18 -24343.483524    523.379017 -21206.255282   6055.510216
PE19    976.801988  27410.908744 -11123.235434 999999.999999
PE24  20045.501611   -230.698150  21769.674874   6598.295743
PE26 -16437.119820  17066.231705  17736.744138   5704.027773
PE30 -23406.936117 -16696.287300  -7054.459821   5674.241963
PG01 -16940.021608 -13423.866223 -15796.364450    -66.293892
PG02  -5897.318547  14995.657603  21651.517510     56.387722
PG03 -13539.054071 -21997.032085   6313.988672    106.472619
PG04  11336.172686 -10593.111999  21261.861131     78.954140
PG05    156.716592  23264.989994  12509.152701     -4.537446
PG06 -20841.216971   7281.467545  14815.668774    386.635631
PG07 -26051.361757  -5953.390086   2446.936313    158.071894
PG08    572.872592 -20143.219672 -17177.167392   -108.344809
PG09 -16578.499036  -2440.370113  20579.856593    513.604061
PG10  14455.009635  -4712.332130 -21738.236886    188.753712
PG11 -11975.251477 -13089.838413 -20289.949776   -729.815585
PG12   9419.269817  24861.013299   1797.155750    320.639102
PG13  -9626.857810  21556.273695 -12268.863764    -92.362229
PG14  18295.923013 -19086.912285   -780.104604    -97.628235
PG15   4098.845643  18809.602862 -18358.079438   -350.654737
PG16   2405.248164 -22456.784242  13471.583835     17.565204
PG17 -20423.265596  13380.289741  -9911.811142    -77.701685
PG18  -7911.926303 -15544.574151 -20545.309557     34.235319
PG19 -19395.033426  18178.700835  -2145.863836   -419.983808
PG20  18433.672816   4941.843512 -18624.796172    512.479875
PG21  26417.846665   2365.028671   -118.051601   -366.799802
PG22 -10180.537589 -24471.228226  -1671.295658   -459.341184
PG23  -9456.093805 -13112.481691  21317.318682   -214.408855
PG24  13464.136531  14500.607228 -17967.004528    -52.627677
PG25  16389.922571  15522.921222  13994.313836   -616.880877
PG26   8719.277028 -15324.151620  19814.427535    -82.228522
PG27  10727.304197 -22747.871871  -8199.358405    360.660181
PG28 -14674.680852    707.615077 -21506.441948    731.561736
PG29  14752.351378   4929.271778  21501.824095    413.880232
PG30 -25418.336448    891.001628  -7940.037841     49.943770
PG31  19806.639382  -7925.596362  16118.062620    107.391008
PG32  20015.195939 -13965.192603 -10327.934449   -474.042912
PJ01 -24909.167048  26523.453240  26383.899265   -178.330814
PR01  -9660.349660  15275.281023  18000.005628     29.141422
PR02  -2090.388457  25447.573572    271.619970    319.933502
PR03   6262.976596  18809.660830 -16031.434821    137.810411
PR04  10954.846773    639.760111 -23005.525838    268.710823
PR05   8985.929254 -17370.167106 -16386.310339    -40.842412
PR07  -6488.341581 -18381.396379  16472.911132    -42.530951
PR08 -10928.631941  -1384.658129  23063.455998     22.262893
PR09  -5475.347376 -15382.065910  19637.793602     18.345487
PR10 -18548.227801 -16462.009222   6145.297168     27.986310
PR11 -21258.238571  -7968.460765 -11669.175435    -34.749480
PR13   5647.146227  15002.814393 -19853.118415    -12.566607
PR14  18457.573075  16424.629487  -6286.332451     29.104362
PR15  21778.220946  10759.907829   7941.278115    -13.231694
PR16  12102.579738  -4535.238096  21989.352193     97.071126
PR17   9155.771919   7255.218005  22681.971818    148.303091
PR18  21410.932704  -3365.335487  13407.691803    203.132867
PR19  22324.263453 -11811.834387  -3582.243801    -56.532206
PR20   9066.521469 -13703.960519 -19491.328897   -345.316984
PR21  -9429.561664  -6997.863646 -22646.699396      6.934470
PR22 -22323.814448   4694.899871 -11547.793493    -55.861993
PR23 -20372.402616  13370.517756   7532.204002    166.054637
PR24  -7869.887318  13721.023569  19985.592694   -168.941104
PR26   9793.605086 -14096.935031 -18870.918398     34.294115
EOF
